OBJECT_NAME,OBJECT_ID,EPOCH,MEAN_MOTION,ECCENTRICITY,INCLINATION,RA_OF_ASC_NODE,ARG_OF_PERICENTER,MEAN_ANOMALY,EPHEMERIS_TYPE,CLASSIFICATION_TYPE,NORAD_CAT_ID,ELEMENT_SET_NO,REV_AT_EPOCH,BSTAR,MEAN_MOTION_DOT,MEAN_MOTION_DDOT
PE2_FLT2  (TYVAK-0262),2024-043G,2026-06-07T16:43:54.141888,14.97170602,.0007285,97.8377,289.3475,80.6717,279.5328,0,U,59104,999,12323,.28973E-3,.3291E-4,0
PE2_FLT1 (TYVAK-0261),2024-043H,2026-06-07T15:07:48.974016,14.97162422,.0007179,97.8363,289.2477,77.2688,282.9336,0,U,59105,999,12322,.28538E-3,.3239E-4,0
RROCI-2,2024-043J,2026-06-07T15:30:57.371040,14.99879103,.0011059,97.8444,291.3251,56.1624,304.0650,0,U,59106,999,12333,.28625E-3,.3491E-4,0
BRO-13,2024-043K,2026-06-07T19:10:22.234080,14.96577644,.0009882,97.8489,289.7888,37.6692,322.5219,0,U,59107,999,12321,.10099E-3,.1091E-4,0
BRO-12,2024-043L,2026-06-07T19:06:59.004864,14.96822923,.0009171,97.8476,289.9477,34.0513,326.1295,0,U,59108,999,12323,.11782E-3,.1291E-4,0
SONATE-2,2024-043Q,2026-06-07T09:04:21.371232,15.57986610,.0006593,97.5526,308.1794,229.6507,130.4173,0,U,59112,999,12636,.50748E-3,.38038E-3,0
CONTECSAT-1,2024-043V,2026-06-07T20:13:33.583584,15.36465328,.0008889,97.5634,299.5991,267.4238,92.5988,0,U,59117,999,12581,.29325E-3,.10363E-3,0
TIGER-8,2024-043Y,2026-06-07T08:55:01.686720,15.44508492,.0006478,97.5539,306.6154,231.2394,128.8276,0,U,59120,999,12627,.2108E-3,.9688E-4,0
LYNK TOWER 5,2024-043Z,2026-06-07T18:45:05.258304,15.30614875,.0009566,97.5625,296.1023,281.9564,78.0603,0,U,59121,999,12560,.22278E-3,.6521E-4,0
NUSAT-44 (MARIA MITCHELL),2024-043AA,2026-06-07T19:00:22.015008,15.29843494,.0005727,97.5440,298.9136,264.4418,95.6169,0,U,59122,999,12583,.39987E-3,.11489E-3,0
LYNK TOWER 6,2024-043AB,2026-06-07T08:09:53.311104,15.31066004,.0008581,97.5590,295.1502,280.1637,79.8636,0,U,59123,999,12552,.20045E-3,.5941E-4,0
VSP ROSE,2024-043AC,2026-06-07T19:26:14.234208,15.28599429,.0009218,97.5605,295.0594,281.3947,78.6256,0,U,59124,999,12555,.17637E-3,.4833E-4,0
TRANSPORTER-10 OBJECT AD,2024-043AD,2026-06-07T08:34:12.626112,15.35882401,.0007739,97.5630,299.0880,266.0720,93.9638,0,U,59125,999,12575,.24634E-3,.8526E-4,0
YAM-6,2024-043AE,2026-06-07T08:27:19.056096,15.36998395,.0006913,97.5554,299.2085,261.6214,98.4246,0,U,59126,999,12580,.2637E-3,.9467E-4,0
JACKAL X-1L-001,2024-043AF,2026-06-07T16:14:20.337792,15.44234500,.0005911,97.5579,303.2953,246.3448,113.7179,0,U,59127,999,12608,.37114E-3,.16983E-3,0
TRANSPORTER-10 OBJECT AG,2024-043AG,2026-06-07T10:36:09.861120,15.32005737,.0008406,97.5636,296.9324,274.7121,85.3160,0,U,59128,999,12562,.22066E-3,.6744E-4,0
APEX ARIES 1,2024-043AH,2026-06-07T08:47:43.806336,15.55305524,.0004885,97.5465,308.0458,229.2101,130.8729,0,U,59129,999,12639,.36434E-3,.24646E-3,0
GHOST-5,2024-043AJ,2026-06-07T15:20:16.035936,15.42665545,.0006752,97.5581,302.7678,247.2417,112.8116,0,U,59130,999,12604,.32079E-3,.13908E-3,0
MESON-1,2024-043AK,2026-06-07T08:09:14.165856,15.31024206,.0008611,97.5637,296.3014,275.8784,84.1474,0,U,59131,999,12557,.21139E-3,.6262E-4,0
LIZZIESAT-1 (LS-1),2024-043AL,2026-06-07T08:05:30.579072,15.27394813,.0009224,97.5626,294.0112,281.3916,78.6286,0,U,59132,999,12543,.15414E-3,.406E-4,0
GHOST-4,2024-043AM,2026-06-07T15:30:49.008384,15.43098987,.0007139,97.5599,303.2386,245.9847,114.0653,0,U,59133,999,12606,.31834E-3,.14005E-3,0
JACKAL X-1L-002,2024-043AN,2026-06-07T15:27:35.186400,15.45894258,.0006395,97.5566,304.2079,236.6583,123.4054,0,U,59134,999,12614,.3715E-3,.17993E-3,0
VSP RF A1,2024-043AP,2026-06-06T16:02:34.931040,15.26249001,.0006854,97.5414,293.9596,274.2205,85.8250,0,U,59135,999,12538,.39863287E-4,.958E-5,0
VSP RF C1,2024-043AQ,2026-06-07T20:17:41.136864,15.30268275,.0008425,97.5602,296.5781,266.7741,93.2535,0,U,59136,999,12565,.19491E-3,.5632E-4,0
VSP RF B1,2024-043AR,2026-06-07T13:59:49.730208,15.27042073,.000839,97.5607,295.4217,267.7772,92.2505,0,U,59137,999,12555,.18044E-3,.4715E-4,0
TIGER-7,2024-043AV,2026-06-07T16:46:04.879776,15.48390019,.0005546,97.5478,309.2562,194.6861,165.4229,0,U,59141,999,12650,.29229E-3,.15404E-3,0
TRANSPORTER-10 OBJECT AW,2024-043AW,2026-06-07T09:03:47.281248,16.14829239,.0009833,97.5250,318.6809,255.9073,104.1120,0,U,59142,999,12704,.96133E-3,.122092E-1,.10665E-2
LEMUR-2-JOHNNYTRUONG,2024-043BA,2026-06-07T09:37:00.073920,15.59740785,.0004465,97.5375,309.5039,206.7400,153.3627,0,U,59146,999,12651,.49092E-3,.39294E-3,0
HAMMER,2024-043BC,2026-06-07T20:28:32.217888,15.50492310,.0006382,97.5439,307.1629,218.6915,141.3879,0,U,59148,999,12636,.10146E-2,.58142E-3,0
STARLINK-31312,2024-044A,2026-06-07T14:46:10.202304,15.27569522,.0001164,43.0020,268.4745,126.8315,233.2644,0,U,59152,999,12793,-.38887E-4,-.1332E-4,0
STARLINK-31308,2024-044B,2026-06-07T01:13:12.924192,15.27591380,.0001316,43.0039,275.5308,259.0217,101.0487,0,U,59153,999,12781,.7142E-4,.1704E-4,0
STARLINK-31270,2024-044C,2026-06-07T17:17:36.836736,15.27577472,.0000251,43.0035,318.6704,226.5121,133.5710,0,U,59154,999,12736,.21798E-4,.338E-5,0
STARLINK-31341,2024-044D,2026-06-06T18:04:53.784192,15.27571250,.00012112,42.9968,327.7543,219.5960,140.4803,0,U,59155,999,12714,-.26100193E-4,-.98E-5,0
STARLINK-31338,2024-044E,2026-06-07T17:31:42.242592,15.27604760,.0002894,43.0042,322.1865,273.4285,86.6235,0,U,59156,999,12729,-.38333E-3,-.10805E-3,0
STARLINK-31334,2024-044F,2026-06-05T13:33:26.550432,15.27576950,.00029269,43.0036,334.3140,243.7258,116.3293,0,U,59157,999,12696,.45543527E-4,.991E-5,0
STARLINK-31297,2024-044G,2026-06-07T17:23:09.950208,15.27575933,.0001121,43.0024,318.6979,125.1636,234.9321,0,U,59158,999,12736,.11566E-4,.56E-6,0
STARLINK-31182,2024-044H,2026-06-07T18:03:40.764096,15.27580968,.0000691,42.9955,318.0519,245.6421,114.4358,0,U,59159,999,12737,.41079E-4,.869E-5,0
STARLINK-31327,2024-044J,2026-06-07T17:26:51.929088,15.27557913,.0002024,43.0015,318.7156,279.9204,80.1419,0,U,59160,999,12736,-.25656E-3,-.7311E-4,0
STARLINK-31256,2024-044K,2026-06-07T04:01:47.589024,15.27588989,.0000699,42.9995,321.3962,262.3197,97.7576,0,U,59161,999,12728,.10437E-3,.2612E-4,0
STARLINK-31272,2024-044L,2026-06-07T04:07:20.763840,15.27587023,.0000316,43.0064,321.4289,311.0126,49.0699,0,U,59162,999,12725,.54587E-4,.1241E-4,0
STARLINK-31278,2024-044M,2026-06-06T14:05:29.633856,15.27585611,.0001096,43.0044,324.7858,295.0787,64.9951,0,U,59163,999,12716,.62944E-4,.1471E-4,0
STARLINK-31309,2024-044N,2026-06-07T04:18:26.468064,15.27591234,.0001168,43.0065,321.4882,275.1328,84.9391,0,U,59164,999,12728,.81279E-4,.1976E-4,0
STARLINK-31325,2024-044P,2026-06-07T04:22:07.697856,15.27585213,.000244,43.0048,321.5052,265.1873,94.8700,0,U,59165,999,12725,.163E-4,.186E-5,0
STARLINK-31342,2024-044Q,2026-06-07T17:00:57.607776,15.27554357,.0002671,43.0067,318.5813,259.1873,100.8678,0,U,59166,999,12736,.55321E-4,.1259E-4,0
STARLINK-31298,2024-044R,2026-06-07T17:06:30.642624,15.27570728,.0000538,43.0039,318.6098,128.6491,231.4409,0,U,59167,999,12733,.53538E-4,.1211E-4,0
STARLINK-31322,2024-044S,2026-06-07T17:43:31.464768,15.27566700,.0000913,43.0027,318.7961,256.2675,103.8075,0,U,59168,999,12736,-.49207E-4,-.1615E-4,0
STARLINK-31329,2024-044T,2026-06-07T17:32:25.986048,15.27559480,.000144,43.0006,318.7419,269.3450,90.7237,0,U,59169,999,12733,-.11532E-3,-.3432E-4,0
STARLINK-31340,2024-044U,2026-06-07T01:50:38.035968,15.27690814,.0004697,43.0028,282.6671,279.5703,80.4618,0,U,59170,999,12769,.74067E-3,.20249E-3,0
STARLINK-31344,2024-044V,2026-06-07T17:37:58.601856,15.27563284,.0001704,43.0032,318.7703,263.3188,96.7470,0,U,59171,999,12736,-.90222E-4,-.2743E-4,0
STARLINK-31348,2024-044W,2026-06-07T01:15:04.917600,15.27598250,.0000677,43.0018,275.5375,231.2842,128.7949,0,U,59172,999,12777,.7992E-3,.21807E-3,0
STARLINK-31289,2024-044X,2026-06-07T17:12:01.596096,15.27590747,.0001065,43.0004,318.6300,184.5042,175.5800,0,U,59173,999,12736,-.27846E-4,-.1028E-4,0
STARLINK-31283,2024-044Y,2026-06-07T20:00:04.000032,15.27559329,.0001584,43.0021,271.0309,262.7420,121.0264,0,U,59174,999,589,.20913E-2,.57701E-3,0
EXO-0,2023-174DK,2026-06-07T17:54:17.078400,15.34526898,.0008835,97.3813,238.8951,194.7595,165.3392,0,U,59175,999,14359,.29015E-3,.9638E-4,0
STARLINK-31439,2024-045A,2026-06-07T02:23:40.879680,15.27597844,.0002872,43.0078,304.3034,274.3916,85.6607,0,U,59178,999,6320,.28148E-3,.7496E-4,0
STARLINK-31410,2024-045B,2026-06-06T16:56:11.599584,15.27600266,.00025797,42.9988,309.9701,281.4844,78.5718,0,U,59179,999,12677,.38464336E-3,.10344E-3,0
STARLINK-31395,2024-045C,2026-06-07T17:00:02.020608,15.27572596,.0001126,43.0054,304.5967,262.4031,97.6693,0,U,59180,999,12692,-.92521E-4,-.2807E-4,0
STARLINK-31486,2024-045D,2026-06-07T16:36:38.832768,15.27569778,.0001932,42.9985,301.0069,285.6331,74.4308,0,U,59181,999,12696,-.97387E-4,-.294E-4,0
STARLINK-31411,2024-045E,2026-06-06T03:36:42.368832,15.27581081,.000055,43.0007,312.6753,114.6985,245.3923,0,U,59182,999,12669,.68547E-4,.1625E-4,0
STARLINK-31382,2024-045G,2026-06-07T17:09:03.555072,15.27577271,.0000512,43.0048,303.7749,91.9490,268.1420,0,U,59184,999,12693,.5416E-5,-.113E-5,0
STARLINK-31394,2024-045H,2026-06-07T15:59:12.189120,15.27574613,.0000925,43.0058,293.9086,244.6727,115.4029,0,U,59185,999,12704,-.55612E-5,-.415E-5,0
STARLINK-31403,2024-045J,2026-06-07T15:24:14.860224,15.27560370,.0001546,43.0008,283.1133,290.4356,69.6329,0,U,59186,999,12710,-.99695E-4,-.3003E-4,0
STARLINK-31514,2024-045K,2026-06-07T16:23:00.354336,15.27582556,.0001413,43.0027,304.4024,271.9200,88.1490,0,U,59187,999,12692,.17448E-4,.218E-5,0
STARLINK-31478,2024-045L,2026-06-07T16:08:12.367104,15.27532057,.0002124,43.0022,304.3173,277.5839,82.4772,0,U,59188,999,12692,-.41304E-3,-.11594E-3,0
STARLINK-31498,2024-045M,2026-06-07T16:45:13.051872,15.27574815,.0001462,43.0103,304.5138,255.1967,104.8723,0,U,59189,999,12692,-.81721E-4,-.251E-4,0
STARLINK-31563,2024-045N,2026-06-06T03:45:56.801088,15.27584403,.0001618,43.0070,312.7285,272.9753,87.0914,0,U,59190,999,12669,.66349E-4,.1564E-4,0
